[{"OBJECT_NAME":"OBJECT E","OBJECT_ID":"2024-174E","EPOCH":"2026-03-09T23:40:24.424320","MEAN_MOTION":15.26241811,"ECCENTRICITY":0.00122518,"INCLINATION":97.4515,"RA_OF_ASC_NODE":80.1669,"ARG_OF_PERICENTER":217.7524,"MEAN_ANOMALY":142.2856,"EPHEMERIS_TYPE":0,"CLASSIFICATION_TYPE":"U","NORAD_CAT_ID":61242,"ELEMENT_SET_NO":999,"REV_AT_EPOCH":8070,"BSTAR":0.00031155901,"MEAN_MOTION_DOT":8.013e-5,"MEAN_MOTION_DDOT":0},{"OBJECT_NAME":"STARLINK-32765","OBJECT_ID":"2025-014N","EPOCH":"2026-03-09T05:07:20.661312","MEAN_MOTION":15.27599854,"ECCENTRICITY":4.813e-5,"INCLINATION":42.998,"RA_OF_ASC_NODE":157.1578,"ARG_OF_PERICENTER":205.874,"MEAN_ANOMALY":154.2087,"EPHEMERIS_TYPE":0,"CLASSIFICATION_TYPE":"U","NORAD_CAT_ID":62747,"ELEMENT_SET_NO":999,"REV_AT_EPOCH":6318,"BSTAR":0.0014361809,"MEAN_MOTION_DOT":0.00039494,"MEAN_MOTION_DDOT":0}]
